[
    {
        "CCSDS_OMM_VERS": "3.0",
        "COMMENT": "GENERATED VIA SPACE-TRACK.ORG API",
        "CREATION_DATE": "2025-04-10T23:30:38",
        "ORIGINATOR": "18 SPCS",
        "OBJECT_NAME": "COSMOS 2465 (GLONASS)",
        "OBJECT_ID": "2010-041B",
        "CENTER_NAME": "EARTH",
        "REF_FRAME": "TEME",
        "TIME_SYSTEM": "UTC",
        "MEAN_ELEMENT_THEORY": "SGP4",
        "EPOCH": "2025-04-10T10:56:03.268032",
        "MEAN_MOTION": "2.13098349",
        "ECCENTRICITY": "0.00405640",
        "INCLINATION": "63.9080",
        "RA_OF_ASC_NODE": "205.0610",
        "ARG_OF_PERICENTER": "179.2544",
        "MEAN_ANOMALY": "219.8445",
        "EPHEMERIS_TYPE": "0",
        "CLASSIFICATION_TYPE": "U",
        "NORAD_CAT_ID": "37138",
        "ELEMENT_SET_NO": "999",
        "REV_AT_EPOCH": "11364",
        "BSTAR": "0.00000000000000",
        "MEAN_MOTION_DOT": "-0.00000025",
        "MEAN_MOTION_DDOT": "0.0000000000000",
        "SEMIMAJOR_AXIS": "25508.316",
        "PERIOD": "675.744",
        "APOAPSIS": "19233.653",
        "PERIAPSIS": "19026.709",
        "OBJECT_TYPE": "PAYLOAD",
        "RCS_SIZE": "LARGE",
        "COUNTRY_CODE": "CIS",
        "LAUNCH_DATE": "2010-09-02",
        "SITE": "TTMTR",
        "DECAY_DATE": null,
        "FILE": "4698059",
        "GP_ID": "285311022",
        "TLE_LINE0": "0 COSMOS 2465 (GLONASS)",
        "TLE_LINE1": "1 37138U 10041B   25100.45559338 -.00000025  00000-0  00000-0 0  9996",
        "TLE_LINE2": "2 37138  63.9080 205.0610 0040564 179.2544 219.8445  2.13098349113642"
    }
]